{
"type": "FeatureCollection",
"name": "ipil",
"crs": { "type": "name", "properties": { "name": "urn:ogc:def:crs:OGC:1.3:CRS84" } },
"features": [
{"type":"Feature","properties":{"adm1_psgc":1900000000,"adm2_psgc":1907000000,"adm3_psgc":1907002000,"adm4_psgc":1907002005,"adm4_en":"Ipil","geo_level":"Bgy","len_crs":12681,"area_crs":5797718,"len_km":12,"area_km2":5.0},"geometry":{"type":"MultiPolygon","coordinates":[[[[119.852898369000044,5.090132046000065],[119.853280284000121,5.089949962000048],[119.853792310000017,5.089694589000032],[119.853927840000097,5.089607618000058],[119.854028910000025,5.08952980400005],[119.854150653000033,5.089413088000072],[119.854305727000124,5.089246314000037],[119.854491777000021,5.089010600000051],[119.854761888000098,5.088703200000055],[119.854833094000028,5.088634544000059],[119.854927273000058,5.088561308000067],[119.855078879000075,5.088442299000065],[119.855200624000076,5.088357618000031],[119.85530399400011,5.088291245000049],[119.855471761000103,5.088194907000058],[119.855676204000019,5.088082756000063],[119.855880649000042,5.087979757000027],[119.856046044000081,5.087901935000048],[119.85653660200002,5.087635918000045],[119.856840260000013,5.087471275000042],[119.856911471000103,5.087427789000059],[119.856989571000099,5.087368283000046],[119.857090638000059,5.087269875000059],[119.857263612000111,5.087071828000034],[119.85734400300008,5.086973422000028],[119.857412913000076,5.086904766000032],[119.857495606000029,5.08683381800006],[119.857658514000022,5.086689001000023],[119.857798634,5.086588299000027],[119.857964023000036,5.086476153000035],[119.858069686000022,5.086389185000031],[119.858163862000069,5.086293066000052],[119.858271227000031,5.086166423000064],[119.858326348000105,5.086072598000042],[119.858386061000047,5.085958178000054],[119.858473282000077,5.085798532000069],[119.858523804000015,5.085668096000063],[119.858583513000113,5.08552164100007],[119.8586982180001,5.085191479000058],[119.858878036000078,5.084697119000053],[119.858925470000031,5.084607620000042],[119.858956123000112,5.084552949000057],[119.859002056,5.08447056500006],[119.859066369000061,5.084397332000037],[119.859142173,5.084344693000048],[119.859227165000107,5.084285188000024],[119.859298377000073,5.084260007000068],[119.862375321000059,5.078399385000068],[119.863900250000015,5.075495705000038],[119.86333937500001,5.071908758000062],[119.862044778000055,5.063619106000033],[119.860257178000097,5.063454215000035],[119.860308013000022,5.063284075000069],[119.859718375000043,5.063180256000066],[119.859707276000094,5.063175762000071],[119.859700476000071,5.063187613000023],[119.859662304000054,5.063237723000044],[119.859657098000085,5.063249820000067],[119.859658832000051,5.063265372000046],[119.859662299000092,5.063277469000069],[119.859672708000076,5.063289566000037],[119.859698730000105,5.063299937000068],[119.85971087300004,5.063308580000069],[119.859712607,5.063315491000026],[119.859709137000095,5.063325859000029],[119.859684844000085,5.063358692000064],[119.859674435000102,5.063367330000061],[119.859664026,5.063370786000063],[119.859657087000073,5.063367329000074],[119.859653619000042,5.063350047000028],[119.859665764000042,5.063325855000071],[119.859660561000055,5.063320671000042],[119.859648417000017,5.06331375700006],[119.859634539,5.063312028000041],[119.859624129000053,5.063313755000024],[119.859598106,5.063322393000022],[119.859572083000103,5.063325847000044],[119.859552998000026,5.063332757000069],[119.859551263000071,5.063343125000075],[119.859572079000031,5.063367321000044],[119.859573812,5.063377689000049],[119.859566871000084,5.063391513000056],[119.859554728000035,5.063398424000068],[119.859546054000035,5.063396695000051],[119.859537382000084,5.063369045000059],[119.85952697300003,5.063367316000039],[119.859518299000101,5.063369043000022],[119.859507888000067,5.063374227000054],[119.859499214000039,5.063382866000041],[119.859492273000114,5.063394962000075],[119.859487066000057,5.063408786000024],[119.859481859000098,5.063448532000051],[119.859474918000046,5.063464084000032],[119.859464508000087,5.063472723000074],[119.859454097000025,5.06347617800003],[119.85942287100012,5.063477904000023],[119.859410726000092,5.063484815000037],[119.859400316,5.063495183000043],[119.859395110000037,5.063510735000023],[119.859395108000058,5.06352974400005],[119.859400311000044,5.063543569000045],[119.859428067000067,5.063553940000077],[119.859433272000047,5.06356085300007],[119.859433271000043,5.063567765000073],[119.859426331,5.063569493000044],[119.859414188000073,5.063564307000036],[119.859400309000094,5.063562578000074],[119.859391633000087,5.063579858000025],[119.859380867000041,5.06364483300007],[119.859382600000117,5.063662114000065],[119.859393006000118,5.06370877300003],[119.859398207000027,5.063745065000035],[119.859408611000049,5.063781354000069],[119.859417284000088,5.063798636000059],[119.859484935000069,5.063893687000075],[119.859498810000105,5.06392824900007],[119.859502278000036,5.06394380200004],[119.85950921700011,5.063957628000025],[119.859521359000041,5.063967998000066],[119.859535238000035,5.063969727000027],[119.859549117000029,5.063966273000063],[119.859568202000105,5.063952449000055],[119.859578611000089,5.063955906000047],[119.859587283000096,5.06396627500004],[119.85959769100009,5.063983558000073],[119.859609834000011,5.063992199000041],[119.85962197700006,5.063993929000048],[119.859634122000102,5.063992201000075],[119.859651471000021,5.06398529100005],[119.859661881000093,5.06398010700002],[119.859670556000083,5.063973196000063],[119.859679230000111,5.063969740000061],[119.859693108000087,5.063974926000069],[119.859700047000061,5.063983567000037],[119.859696576000019,5.063993935000041],[119.859687902000019,5.064000847000045],[119.859665348000036,5.06400775700007],[119.859656672000028,5.06401812400003],[119.859658404,5.064045774000022],[119.859651464000066,5.064052685000035],[119.859639321000017,5.064052684000046],[119.859615034000058,5.064042313000071],[119.859604625000102,5.064044041000045],[119.859594214000026,5.064047496000057],[119.859585540000012,5.064054407000071],[119.859580335000032,5.064064775000075],[119.859578599000088,5.064078599000027],[119.859583802000103,5.064094154000032],[119.859595944000034,5.064106250000065],[119.859615027000018,5.064118349000069],[119.859597675000046,5.064152909000027],[119.859601143000077,5.064165005000064],[119.859613285000037,5.064173647000075],[119.8596288990001,5.064178833000027],[119.859646247000114,5.064177106000044],[119.859672272000026,5.064165012000046],[119.85968615100002,5.064161557000033],[119.859701764000093,5.06415983100004],[119.859722583000021,5.064158105000046],[119.859726051000052,5.064170202000071],[119.859720846000073,5.064184026000021],[119.859712170000094,5.064194393000036],[119.85970176100011,5.064204761000041],[119.859665326000041,5.064234135000049],[119.859637565000085,5.064260053000056],[119.859627156000101,5.064272149000034],[119.85959418700007,5.064330900000073],[119.859583778000115,5.06434299600005],[119.859575103000125,5.064349907000063],[119.859564692000063,5.064353363000065],[119.859554284000069,5.064349905000029],[119.85954214100002,5.064341264000064],[119.859528264000119,5.064320525000026],[119.859524796000073,5.064304973000048],[119.859521330000021,5.06427041100005],[119.859523065000076,5.064263499000047],[119.859535212000097,5.064241035000065],[119.859535213000086,5.064232395000033],[119.859526540000047,5.064204744000051],[119.859519603000066,5.064192647000027],[119.859512664000022,5.064185734000035],[119.859493582000042,5.064177093000068],[119.859484908000013,5.064170180000075],[119.859477970000057,5.064159809000046],[119.859472766000081,5.064144257000067],[119.859467565000045,5.064111422000053],[119.85922822100008,5.063444361000051],[119.8591917870001,5.063463367000054],[119.859337479000033,5.063834919000044],[119.859307983,5.06386256500002],[119.859297574000038,5.063866019000044],[119.85928542900001,5.063866018000056],[119.859261142000037,5.06386255900003],[119.859243794000022,5.063853918000064],[119.859229917000107,5.063840091000032],[119.859193490000067,5.063791703000049],[119.859184816000038,5.06378651700004],[119.85916746800001,5.063788243000034],[119.859151853000085,5.063798610000048],[119.859139709000047,5.063803793000033],[119.859131034000029,5.063803792000043],[119.859124095000084,5.063798608000069],[119.859120627000053,5.063789967000049],[119.859122362000107,5.063783056000034],[119.859134507000022,5.06377787100007],[119.859163999000089,5.063770962000036],[119.859174410000023,5.063762323000049],[119.859177880000075,5.063753683000073],[119.859177881000065,5.063739858000076],[119.85916747400006,5.063726032000034],[119.859153596000056,5.063717392000058],[119.859132778000117,5.063712204000069],[119.859111960000078,5.063712202000032],[119.859075527000087,5.06372084000003],[119.85905644200011,5.063729478000027],[119.859039093000092,5.063739844000054],[119.85902000800003,5.063757124000063],[119.859006128000033,5.063772676000043],[119.85899224700006,5.063791682000044],[119.858976632,5.063807233000035],[119.858940197000052,5.063836607000042],[119.858914173000016,5.063852157000041],[119.858889883000074,5.063860796000029],[119.858870800000091,5.063865978000023],[119.858829163000124,5.06387115900003],[119.858813548000072,5.063879797000026],[119.858794462000105,5.063907444000051],[119.858778848000057,5.063912627000036],[119.858761499000039,5.063907441000025],[119.858719865000012,5.063883245000055],[119.858702517000083,5.063878058000057],[119.858669555,5.063876327000058],[119.858615773000125,5.063886690000061],[119.858594953000065,5.063886688000025],[119.858575871000085,5.063884959000062],[119.858544644000048,5.063872858000026],[119.858516887000064,5.063871128000073],[119.858487645000068,5.063865022000073],[119.858479462000105,5.063868367000055],[119.858457323000039,5.063872653000032],[119.858346129000097,5.063908941000022],[119.858273449000095,5.063928022000027],[119.858185863000031,5.063940374000027],[119.85813629900008,5.06394414700003],[119.858115120000093,5.063949873000069],[119.85809875200006,5.063956562000044],[119.858071303000102,5.063974742000028],[119.858057340000073,5.063981914000067],[119.858037607000028,5.063986681000074],[119.85801450800011,5.063989528000036],[119.857993821000036,5.063986627000076],[119.857967849000048,5.063978926000061],[119.85795437,5.06398370200003],[119.857947147000118,5.063988486000028],[119.857939424000037,5.064008127000023],[119.857934121000085,5.064015789000051],[119.85792689700007,5.064020573000049],[119.857917761000081,5.064016248000029],[119.857899496000087,5.064001367000059],[119.857889875000083,5.063999438000053],[119.85787736500005,5.063999423000041],[119.857866776000037,5.064002285000072],[119.857857147000118,5.064006587000052],[119.857849440000109,5.064013766000074],[119.857841709000027,5.064039638000054],[119.857833524000057,5.064042983000036],[119.857823903000053,5.064041054000029],[119.857797939000079,5.064027123000074],[119.857786873000023,5.064026150000075],[119.857775324000059,5.064027574000021],[119.857763290000079,5.064031393000049],[119.857721878,5.064056744000025],[119.857695398000033,5.064070131000051],[119.85765303300002,5.064087812000024],[119.85762847400008,5.064104078000071],[119.857617877000052,5.064113171000031],[119.857605343000046,5.064131846000065],[119.857600518000027,5.064143343000067],[119.857599057000016,5.064156762000039],[119.857602891000056,5.064168748000042],[119.857610099000127,5.064176426000074],[119.857629332000101,5.064186515000074],[119.857640382000113,5.064199948000065],[119.85763893100011,5.064207136000048],[119.857618212000048,5.064229157000057],[119.857600861000051,5.064253101000077],[119.857601791000093,5.064279462000059],[119.857612372000062,5.064282830000024],[119.857632106000096,5.06427806100004],[119.857652316000099,5.064277128000072],[119.857668190000012,5.06427906400006],[119.857680694000024,5.064285312000036],[119.85768597300013,5.064296341000046],[119.857684513000095,5.064309759000024],[119.8576141530001,5.064397860000042],[119.857598729000074,5.064418450000062],[119.857587157000012,5.064438566000034],[119.857577488000075,5.064474021000023],[119.85757697400004,5.064501340000049],[119.857578887000045,5.064510448000022],[119.857575029000017,5.064517154000042],[119.857566846000054,5.064520498000038],[119.857555191000074,5.064537492000056],[119.857564782000068,5.064564344000074],[119.857556098000046,5.064582547000042],[119.857536357000072,5.064593545000037],[119.857515179000089,5.064599270000032],[119.857508916000015,5.064605493000044],[119.857510345000037,5.064616998000075],[119.857517553000093,5.064624675000061],[119.857530532000069,5.064634758000068],[119.857560354000057,5.064641984000048],[119.857569491000049,5.064646308000021],[119.857572849,5.064654460000043],[119.85755454500007,5.064670733000069],[119.85754058200007,5.064677905000052],[119.857539130000077,5.064685093000038],[119.857542488000036,5.064693244000067],[119.857554030000088,5.064698051000049],[119.857578082000032,5.064702874000033],[119.857585774000086,5.064708156000052],[119.857583837000092,5.064717739000059],[119.857559754000022,5.064737839000029],[119.857560229000114,5.064741674000061],[119.857574162000105,5.064759425000032],[119.857586187000052,5.064761836000059],[119.857600143,5.064760896000053],[119.857628545000011,5.06475038600007],[119.857641540000031,5.064748007000048],[119.857654049000075,5.06474802100007],[119.85766703700007,5.064751872000045],[119.85768049900004,5.064759557000059],[119.857685778000018,5.064770588000043],[119.857681866000021,5.064820907000068],[119.857677494000086,5.064854931000071],[119.857676986000115,5.064876020000042],[119.857675534,5.064883207000037],[119.857666849000125,5.064901409000072],[119.857659143000078,5.064908589000025],[119.857650958000036,5.064911933000076],[119.857620667000106,5.064894641000023],[119.857600464000029,5.064889344000052],[119.857576396000013,5.06489698300004],[119.857557615000033,5.064909421000038],[119.857551351000097,5.06491564500004],[119.857547495000077,5.064922349000028],[119.857532080000041,5.06493670900005],[119.857521489000078,5.064939571000026],[119.857428177000088,5.064912135000042],[119.857427226000041,5.064904465000041],[119.857440759000042,5.064856074000033],[119.857440773,5.064843613000051],[119.857432652000071,5.064797112000065],[119.857416323000052,5.064772648000029],[119.857404305000045,5.064764006000074],[119.857393724000062,5.064760638000052],[119.857382174,5.064762062000057],[119.857350399000111,5.064776880000067],[119.857339333000041,5.064775908000057],[119.857329236000055,5.06477014400002],[119.85732251200011,5.064760070000034],[119.857320599000104,5.06475096300005],[119.857322535000108,5.064741379000054],[119.857326393000108,5.06473467300003],[119.857335061000086,5.064728932000037],[119.85736346300007,5.064718424000033],[119.857375981,5.064712208000058],[119.857383211000069,5.064701194000066],[119.857388522000065,5.064687301000049],[119.857386132000116,5.064674358000047],[119.857377480000082,5.064667637000069],[119.857347641000047,5.064672872000073],[119.857335615000011,5.064670460000059],[119.857333218000022,5.064663747000055],[119.857342870000025,5.064640754000039],[119.85734240100011,5.064630688000022],[119.857336162000024,5.064618219000066],[119.857307822000038,5.064578884000071],[119.85730254300006,5.064567853000029],[119.857300661000053,5.064533821000055],[119.85729153200009,5.064523266000037],[119.857281427000089,5.064523732000056],[119.857274204000078,5.064528516000053],[119.857275641000129,5.06453379000004],[119.857274665000105,5.064544812000065],[119.857268878000014,5.064554870000051],[119.857261178000059,5.064555820000066],[119.857251081000072,5.06455005500004],[119.857242913000064,5.064540939000039],[119.857241484000056,5.064529434000065],[119.857243904000043,5.064517455000043],[119.85724824600004,5.064508354000054],[119.857258842000064,5.064499261000036],[119.857269916000064,5.06449400200006],[119.857282427000086,5.064494018000062],[119.857304074000012,5.064498358000037],[119.857310812000037,5.064495971000041],[119.85731178900005,5.064484949000075],[119.857308439000022,5.064470565000023],[119.857301723000091,5.064454261000036],[119.857311866000032,5.064422641000021],[119.85731861400005,5.064414023000039],[119.857327282000028,5.064408282000045],[119.857350381000074,5.064405435000026],[119.857358565000027,5.064402090000044],[119.857367718000091,5.064393954000025],[119.857369662000124,5.064378141000019],[119.857364867000101,5.064364715000068],[119.857353325000091,5.064359907000039],[119.85733840200011,5.064365640000061],[119.857325407000076,5.064368020000074],[119.857314349000035,5.064360817000021],[119.857305705000044,5.064347866000048],[119.857304760000034,5.064333965000059],[119.857326470000089,5.064288460000058],[119.857331319000068,5.064258271000028],[119.857328961,5.064220405000071],[119.857314560000077,5.064192589000072],[119.857294389000117,5.06416236900003],[119.857285261000015,5.06415181400007],[119.857286720000062,5.064138395000043],[119.857293960000106,5.064121150000062],[119.857301674000027,5.064107740000055],[119.857303136000027,5.064094323000062],[119.857299785,5.064079939000067],[119.857294506000031,5.064068910000059],[119.857273352000107,5.064055942000039],[119.857263731000103,5.064054013000032],[119.857254594000096,5.064049688000067],[119.85724738600004,5.064042011000025],[119.857236344000057,5.064022346000058],[119.857227238000064,5.063993099000072],[119.857217626000093,5.063984939000022],[119.857193580000072,5.063973886000042],[119.857182524000095,5.063966684000035],[119.857174355000097,5.063957566000054],[119.85717196600001,5.063944623000054],[119.857175355000109,5.063927852000063],[119.857187888000126,5.063909176000037],[119.857191270000044,5.063898636000032],[119.857188880000095,5.063885692000041],[119.857181672000038,5.063878014000067],[119.857171575000052,5.063872250000031],[119.857167733000097,5.06386649500007],[119.857170630000056,5.063858350000032],[119.857178822000037,5.063848774000065],[119.857213003000069,5.063834438000071],[119.857221678000087,5.063822467000022],[119.857222646000082,5.063817675000053],[119.857216891,5.063802810000026],[119.857203913000035,5.063792730000046],[119.857197658000032,5.063792722000072],[119.857162040000048,5.063801784000021],[119.857132833000023,5.06379547900002],[119.857128039000031,5.063782053000066],[119.857134325000061,5.063757139000074],[119.857127601000116,5.063747066000075],[119.85711750400003,5.063741301000051],[119.857106438000073,5.06374032900004],[119.857062644000052,5.063746505000039],[119.85703857700004,5.06375414400003],[119.857014986000095,5.063765617000058],[119.856997657000093,5.063770868000063],[119.856980821000079,5.063767492000069],[119.856967850000046,5.063751180000052],[119.85696403900009,5.063720502000024],[119.856974175000119,5.063695113000051],[119.856990566000036,5.063669730000072],[119.856987208000078,5.063661580000031],[119.856977595000103,5.063653419000047],[119.856962204000055,5.063649086000055],[119.856903509000063,5.063642304000041],[119.856890024000108,5.063653310000062],[119.856889516000024,5.063674399000037],[119.856884690000015,5.063685895000049],[119.856856304000075,5.063683942000068],[119.856829847000085,5.063678637000065],[119.856777401000045,5.063678093000021],[119.856760073000032,5.063683343000037],[119.856734075000091,5.063694336000026],[119.85671096100009,5.063709643000038],[119.856701325000031,5.06372017500007],[119.856694094000105,5.063731190000055],[119.856685409000093,5.063749392000032],[119.856677195000103,5.063777660000027],[119.856663701000116,5.063794897000035],[119.856657914000039,5.063804954000034],[119.856635752000102,5.063827933000026],[119.856621290000021,5.063849961000073],[119.85661213800006,5.063858099000072],[119.856591920000028,5.063865263000025],[119.856544284000051,5.063865683000074],[119.856497133000076,5.063863706000063],[119.856445663000045,5.063852139000063],[119.856431716000088,5.06384685000006],[119.856360520000067,5.063833821000059],[119.856342724000115,5.063829006000049],[119.856325411000057,5.06382179600007],[119.856289349,5.06380210000003],[119.856270244000029,5.063798921000055],[119.856259714000089,5.063795570000025],[119.856242010000074,5.063784577000036],[119.856224316000066,5.063767384000071],[119.856192281000048,5.063728710000021],[119.856174097,5.063720102000048],[119.856158780000101,5.063715791000048],[119.856136756000069,5.063713856000048],[119.856102275000026,5.063718106000066],[119.856085987000029,5.063724763000038],[119.856070163000027,5.063741436000043],[119.856061523000108,5.063759550000043],[119.856062454000039,5.063779584000031],[119.856065789000013,5.063793897000038],[119.856066248000047,5.063810114000034],[119.8560609540001,5.063830140000048],[119.856035986000066,5.063885913000035],[119.856029257000031,5.063906891000045],[119.856028269000035,5.063930261000054],[119.856030158000067,5.063951727000074],[119.856034448000045,5.063967472000058],[119.856046882000086,5.06397988800006],[119.856070802000104,5.063997089000054],[119.856083236000018,5.064009505000057],[119.856089927000099,5.064019530000052],[119.856109502000109,5.064064390000055],[119.856116653000072,5.064090630000067],[119.856130967000013,5.064130713000053],[119.856133346000107,5.064143594000028],[119.856129973000051,5.064160284000024],[119.856124688000023,5.064174110000069],[119.856120850000039,5.064180783000039],[119.856111742000067,5.064188879000026],[119.856104545000122,5.064199840000071],[119.856107879000106,5.064214153000023],[119.856115045000024,5.064227994000021],[119.856125567000049,5.064237546000071],[119.856138009,5.064243762000046],[119.856163382000076,5.064247610000052],[119.856173905000105,5.064257162000046],[119.85617964000005,5.064265755000066],[119.856176274000077,5.064276244000041],[119.856168605000107,5.064283389000023],[119.856149914000085,5.064295766000042],[119.856145586000025,5.064311024000062],[119.856147957000076,5.064330105000067],[119.856155121000043,5.064343947000054],[119.856020926000042,5.064385170000036],[119.856016147000091,5.064378008000062],[119.856011857000112,5.064362263000022],[119.856005174000089,5.064346038000052],[119.855989390000119,5.064331710000033],[119.855972161000068,5.064324534000036],[119.855938636000019,5.064330217000076],[119.855923801000017,5.064323520000072],[119.855914724000073,5.064306815000064],[119.8559128590001,5.064266748000023],[119.855907621000043,5.064243370000042],[119.855894239,5.064223321000044],[119.855879411000046,5.064210424000064],[119.855864102000069,5.064199912000049],[119.855845435000091,5.064193688000046],[119.855806183000041,5.064184577000047],[119.855782728,5.064177394000071],[119.855764552000096,5.064162586000066],[119.855724856000052,5.064124856000034],[119.855712896000099,5.064116256000035],[119.855643981000085,5.064087553000035],[119.85561382800006,5.064076545000034],[119.855598028000017,5.064074618000064],[119.855577917000119,5.064075547000072],[119.85555971600003,5.064079339000046],[119.855542473000014,5.06408456500003],[119.855528578000062,5.064091702000042],[119.855523775000037,5.064103143000067],[119.855527093000106,5.064129857000069],[119.855548596000077,5.064165179000042],[119.855561504000093,5.06418141100005],[119.855570581000052,5.064198116000056],[119.855575827000052,5.064215293000074],[119.855577723000025,5.064230559000066],[119.855575796000053,5.064240095000059],[119.855564302000076,5.064241512000022],[119.855543242000067,5.064234808000037],[119.855527932000101,5.064224296000019],[119.855515498000059,5.064211880000073],[119.855502582000113,5.064201847000048],[119.855491579000045,5.064194679000026],[119.855476743000068,5.064187983000068],[119.855451370000083,5.064184136000051],[119.855437001000041,5.064187457000058],[119.85542550000001,5.064195075000043],[119.855400079000091,5.06422843000007],[119.855389052000064,5.064239863000068],[119.855372273000057,5.064255105000029],[119.85535070800006,5.064269387000025],[119.855300319000079,5.064289159000054],[119.855261042000052,5.064298649000022],[119.855243806000075,5.064297675000033],[119.855207910000104,5.064284274000044],[119.855202657000063,5.064273298000047],[119.855205066000039,5.064261377000037],[119.855219450000035,5.064245655000036],[119.855246268000087,5.064242350000028],[119.85525728900005,5.064237117000061],[119.855264477000105,5.064232356000047],[119.855264967000039,5.064223771000058],[119.855254445000014,5.064214219000062],[119.855215665000046,5.06420892400007],[119.855199385000105,5.064209381000069],[119.855185490000068,5.064216518000023],[119.855169194000055,5.064229376000072],[119.855157677000079,5.064249394000058],[119.855156697000098,5.064266563000047],[119.855158593000056,5.064281829000038],[119.855166699000065,5.064309502000071],[119.855165728000074,5.064320472000019],[119.855159005000033,5.06433524800002],[119.855132622000056,5.064373372000035],[119.855125900000061,5.06438815000007],[119.85512492700002,5.064399119000029],[119.855134968,5.06441105500005],[119.855155065000076,5.064422527000033],[119.855162238000048,5.064430168000057],[119.855170336000015,5.064464042000054],[119.855169364000062,5.064475011000069],[119.855166481000083,5.064483117000065],[119.855155446000026,5.064500750000037],[119.855144900000042,5.064509799000064],[119.855125721000022,5.064530761000071],[119.855122355000049,5.064541251000035],[119.855127120000034,5.064560811000036],[119.855135241000099,5.064576084000065],[119.855150550000076,5.064586596000026],[119.855165386000067,5.064593293000029],[119.855196502000013,5.064599532000043],[119.855207506000042,5.064606701000059],[119.855214197,5.064616724000075],[119.855214663000083,5.064626741000041],[119.855202206000058,5.064632927000047],[119.855184961000077,5.064638152000042],[119.855171073000051,5.064639088000034],[119.855161492000107,5.064643369000066],[119.855155734000036,5.06465337800006],[119.855161469000109,5.064661970000031],[119.855183959000101,5.064673922000055],[119.85518778200003,5.064679650000071],[119.855186337000077,5.064686803000028],[119.855169559000046,5.064702045000046],[119.855169045000025,5.064729231000058],[119.855179576000083,5.064732583000021],[119.855200178000018,5.064723069000024],[119.855216940000105,5.064720229000044],[119.855226033,5.064724533000059],[119.855226981000115,5.064732165000067],[119.855219303000027,5.06474551100007],[119.855203488000029,5.064755984000044],[119.855188637000097,5.064761689000021],[119.855171875000124,5.064764530000047],[119.855163738000115,5.064761658000065],[119.855152757000042,5.06473588800003],[119.855149423000057,5.064721575000021],[119.855137478000074,5.064700574000027],[119.855128867000076,5.064693886000042],[119.855114025000049,5.064693390000059],[119.855103005000061,5.064698623000026],[119.855100595000067,5.064710544000036],[119.855101055000105,5.06472676200002],[119.855113947000063,5.06475539500002],[119.85511632500004,5.064768276000053],[119.855108655000095,5.064775421000036],[119.855098125000055,5.06477206900007],[119.855085209000109,5.064762037000036],[119.855070374000093,5.064755341000023],[119.855065578000122,5.064760583000065],[119.855063170000108,5.064772503000029],[119.855061655000114,5.06483546000004],[119.855064001000073,5.064873144000045],[119.855069729000093,5.064887937000036],[119.855078332000062,5.064900826000041],[119.855109417000108,5.06493186700004],[119.855128534000059,5.06496050800007],[119.855137619000075,5.064971012000056],[119.855142872000116,5.064981989000046],[119.855142382000068,5.064990574000035],[119.855134713000098,5.064997719000075],[119.855122263000112,5.064997703000074],[119.855106472000102,5.064989575000027],[119.855095949000088,5.064980024000022],[119.855083508,5.064973807000059],[119.855063877,5.06497235100005],[119.855048552000085,5.064974240000027],[119.855035613000041,5.06498281000006],[119.855025059000027,5.06499805900006],[119.855014980000064,5.065017125000053],[119.855006315000068,5.065053840000076],[119.855008188000042,5.065087707000032],[119.855022029000111,5.065123974000072],[119.855036841000015,5.065149271000052],[119.855047845000058,5.065156440000067],[119.855058376000116,5.065159793000021],[119.855094761000032,5.065164608000031],[119.85510385300006,5.065168911000058],[119.855109107000089,5.065179887000055],[119.855108624000096,5.065182272000071],[119.855100955,5.065189417000057],[119.855088979000016,5.065193217000059],[119.855058834000033,5.065176009000027],[119.855048778000068,5.065176473000064],[119.855039196,5.065180754000038],[119.855027694000114,5.065188371000034],[119.855020980000063,5.065196948000051],[119.854993625,5.065246042000068],[119.854985955000089,5.065253186000063],[119.854975899000024,5.065253651000035],[119.854949593000015,5.065229771000077],[119.854935247000071,5.065214489000027],[119.854924725000046,5.065204937000034],[119.854918026000078,5.065201112000066],[119.854901744000017,5.065201569000067],[119.854892163000045,5.065205850000041],[119.854876339000043,5.065222524000035],[119.854858132000118,5.065232517000026],[119.854846638000041,5.065233934000049],[119.854830839000115,5.065232006000031],[119.854817442000012,5.06522435900007],[119.854806919000097,5.065214806000028],[119.854798798000047,5.065199534000044],[119.854798339000027,5.065183315000068],[119.854801231000025,5.065169011000022],[119.854820892000021,5.065145663000066],[119.854813735000107,5.065125622000039],[119.854800337000015,5.065117974000032],[119.854776875000084,5.065116990000035],[119.854766346000019,5.065113639000059],[119.854759653000073,5.065103615000055],[119.854767799000115,5.065100285000028],[119.854785999000129,5.065096492000067],[119.854799894000053,5.065089355000053],[119.854814279000038,5.065073633000053],[119.854817643000061,5.065063144000022],[119.854805271000046,5.065001124000046],[119.854778057000075,5.064938607000044],[119.854774248000012,5.064920478000034],[119.854774265000074,5.064908077000041],[119.85477667400005,5.064896156000031],[119.854784343,5.064889011000048],[119.854810696000087,5.064875690000064],[119.854815972000083,5.064868064000052],[119.854815048000091,5.064841830000034],[119.854818887000079,5.064835157000061],[119.854834212,5.064833269000075],[119.854845698000076,5.064838052000026],[119.854865787000108,5.064855726000075],[119.854875843000059,5.064855261000046],[119.854885424000031,5.064850980000074],[119.85488974600004,5.064841924000063],[119.854889761000095,5.064829522000026],[119.854886902000104,5.064819025000076],[119.854871608000053,5.064796112000068],[119.854856306000116,5.06477939900003],[119.854833648000081,5.064737650000041],[119.854802286000108,5.064709340000035],[119.854795360000011,5.064697314000057],[119.854799115000105,5.064687544000036],[119.854822648000081,5.064671393000024],[119.854828506000104,5.064664849000054],[119.854834625000095,5.064654468000072],[119.854836017000025,5.064645311000049],[119.854834433000065,5.064634413000022],[119.854825759000065,5.064625353000054],[119.854812360000111,5.064617518000034],[119.854796338000028,5.064614130000051],[119.854778309000039,5.064617546000022],[119.854750308,5.06463108500003],[119.85473849500012,5.064634147000049],[119.854727814000057,5.064631891000033],[119.854714414000114,5.064624054000033],[119.854703636000067,5.064611769000066],[119.854700563000051,5.06460000100003],[119.854706325000052,5.064583429000037],[119.854702992000057,5.06457549700002],[119.854695807000098,5.064567308000051],[119.854673734000016,5.064550411000027],[119.854658846,5.064541706000057],[119.854630816000039,5.064521326000033],[119.854616447000026,5.064504946000056],[119.854609780000018,5.064489082000022],[119.854612306000035,5.064474606000033],[119.854624995000108,5.064470061000065],[119.854704133000027,5.06447845100007],[119.854722162000016,5.064475035000043],[119.854740451000126,5.064467782000066],[119.854755761000092,5.064458788000025],[119.854767219000109,5.064449536000039],[119.854787420000108,5.064425453000069],[119.854801404000114,5.06440172400005],[119.854804545000093,5.064389602000061],[119.854802960000029,5.064378704000036],[119.854792183000072,5.064366419000066],[119.854776678000022,5.064355359000047],[119.85474253200006,5.064345362000039],[119.854726770000056,5.064338138000037],[119.854712755000051,5.064327949000074],[119.854676311000048,5.064294674000053],[119.854667024000037,5.064283259000034],[119.854646342000038,5.064257206000036],[119.854590515000055,5.06417869400002],[119.854568249000081,5.064141743000049],[119.854542198000104,5.064080644000056],[119.854526310000097,5.064029476000029],[119.854516925000098,5.064008034000037],[119.854499221000083,5.063983723000034],[119.854459187000103,5.063946353000063],[119.854441320000092,5.063935904000061],[119.854424425000047,5.063934001000063],[119.854381634000106,5.06394886000004],[119.854348456000039,5.063947408000047],[119.854305731000068,5.06393837500002],[119.8542656300001,5.063924895000071],[119.854249607000042,5.063921509000067],[119.854202772,5.063916056000039],[119.854174226000055,5.063903350000032],[119.854157848000128,5.063893773000074],[119.854128331000084,5.063872525000021],[119.854108783000029,5.063841151000076],[119.854102117000025,5.063825289000022],[119.854099302,5.063809684000034],[119.85410121300005,5.063792853000053],[119.854107591000115,5.063778635000062],[119.854119924000088,5.063767900000072],[119.854132872000037,5.063759518000041],[119.854156501000034,5.063753394000059],[119.854163849000088,5.063747721000028],[119.854170582000052,5.063739693000059],[119.854175211000111,5.063728442000069],[119.854175115000103,5.06371841400005],[119.85416495100003,5.063708483000027],[119.854150064,5.063699777000067],[119.854119769000036,5.063690037000072],[119.854106725000065,5.063688392000073],[119.854098761000046,5.063691712000037],[119.854092029000071,5.063699739000072],[119.854084614000044,5.063729304000047],[119.854074481000126,5.063753292000057],[119.854061628000068,5.063771699000028],[119.854051658000117,5.063781823000054],[119.85404107300009,5.063789592000034],[119.854018934000024,5.063796586000023],[119.854010711000129,5.063803744000039],[119.854003720000023,5.063815607000038],[119.853993683000112,5.063849622000019],[119.853991772000086,5.063866451000024],[119.853994001000061,5.063913620000049],[119.853996816000048,5.063929225000038],[119.854005845000088,5.063944476000072],[119.854034748000132,5.063963372000046],[119.854041933000062,5.063971562000062],[119.854044133000116,5.063984813000047],[119.854035651000132,5.063995807000026],[119.854021215000103,5.064003318000063],[119.853987001000064,5.064017211000021],[119.853967580000017,5.064029783000024],[119.853951750000078,5.064046451000022],[119.853954824000084,5.064058219000059],[119.853969972000073,5.064063089000057],[119.854009267000038,5.064054162000047],[119.854020822000052,5.064054936000049],[119.854026518000069,5.064062255000068],[119.854027489000018,5.064070799000034],[119.854024348000038,5.064082922000067],[119.854018844000066,5.064095657000052],[119.854017193000104,5.064108651000026],[119.854017903000113,5.064121032000058],[119.854035250000052,5.064139152000053],[119.854049524000047,5.064145504000067],[119.854060562000086,5.064153953000072],[119.854069235000125,5.06416301300004],[119.854086420000058,5.064194998000062],[119.854095094000058,5.064204058000028],[119.854128885,5.064207866000061],[119.854147885000089,5.064212994000057],[119.854167238000059,5.064224312000022],[119.854175653000084,5.064237210000045],[119.854171024000038,5.064248461000033],[119.854151247000118,5.064254843000071],[119.854083760000094,5.064257256000075],[119.854073435000032,5.064261188000045],[119.85404928700008,5.064274986000044],[119.854046406000066,5.064283271000021],[119.854060967000024,5.064319705000059],[119.854062294000073,5.064334440000039],[119.854061516000115,5.064345950000073],[119.854055398000014,5.064356331000054],[119.854040346000048,5.064361488000031],[119.85401959900004,5.064359326000044],[119.854011799000105,5.064348783000072],[119.854006621000053,5.064333790000036],[119.853995844000096,5.064321505000067],[119.853982800000054,5.064319860000067],[119.853971341000047,5.064329112000052],[119.853954734000027,5.064357290000032],[119.85395220800001,5.064371766000021],[119.853954408000035,5.064385017000062],[119.853961948,5.064399398000034],[119.853979911,5.06441987200003],[119.85399078500005,5.06444218400003],[119.85398835500007,5.064466688000039],[119.853982591000076,5.06448326000003],[119.853965466000091,5.064519110000049],[119.85395306700002,5.06455373600005],[119.853919688000033,5.064623955000058],[119.853902401000013,5.064673670000046],[119.853885275000039,5.064709521000054],[119.853876533000061,5.064724353000031],[119.853840505000122,5.064765103000071],[119.853812602000062,5.064788668000062],[119.853792662000046,5.064808914000024],[119.85375320300011,5.064831706000064],[119.853739640000072,5.064837735000026],[119.853730448000078,5.064836347000039],[119.853725010000062,5.064825191000068],[119.853728219000132,5.064789177000023],[119.853727152000033,5.064770606000024],[119.853716442000064,5.064734430000044],[119.853707412000077,5.064719179000065],[119.853704339000046,5.06470741100003],[119.853703013000086,5.064692678000028],[119.853707902000124,5.064677588000053],[119.853725902000065,5.064640254000039],[119.853746005000062,5.064606144000036],[119.853781486000116,5.064539149000041],[119.85380489300006,5.06447905300007],[119.853815545000103,5.064447393000023],[119.853815612000062,5.064423502000067],[119.853813153000033,5.064414087000045],[119.853812442000034,5.06440170700006],[119.85381707000009,5.064390455000024],[119.85384478200001,5.064346834000047],[119.853848181000103,5.064330875000052],[119.853846597000029,5.064319978000071],[119.853841775000078,5.064311175000056],[119.853836596000079,5.064296184000058],[119.853836760000036,5.064282320000073],[119.853841390000071,5.06427106700005],[119.853849611000101,5.064263910000022],[119.853857219000034,5.064254400000038],[119.853859486000047,5.064243760000068],[119.853851234000118,5.064216999000052],[119.853852886000027,5.064204007000056],[119.853868100000128,5.064184985000054],[119.853873344,5.064176087000021],[119.853873863000103,5.064168413000061],[119.853872019000036,5.064161352000041],[119.853856515000075,5.064150292000023],[119.853847746000042,5.064131206000069],[119.853843220000044,5.06406075700005],[119.853834353000039,5.06403164300002],[119.853828658000126,5.064024323000068],[119.853819465,5.064022936000072],[119.853769326000034,5.064043470000057],[119.853749548000124,5.064049851000049],[119.853723911000088,5.06406277800005],[119.853708861000101,5.064067936000071],[119.853691706000077,5.064069868000046],[119.853677173000051,5.064067352000052],[119.853634178000121,5.064052912000024],[119.853559025000109,5.063996999000039],[119.853506463000031,5.063950309000063],[119.853475198000069,5.063932026000031],[119.853465035000113,5.06392209400002],[119.853458984000099,5.063908584000047],[119.853462028000081,5.06388643400004],[119.853475753000112,5.063866543000074],[119.8534848500001,5.06385790300004],[119.85349692300008,5.063851004000072],[119.853505146000103,5.063843847000043],[119.853518611000013,5.063827792000041],[119.853521493000031,5.063819506000073],[119.853521397000023,5.063809479000041],[119.853518064,5.063801547000027],[119.853491880000107,5.063788229000066],[119.853473495000131,5.063785455000073],[119.853459577000081,5.063785293000024],[119.853447407000104,5.063782164000031],[119.853436370000054,5.06377371600007],[119.85343031900004,5.063760206000041],[119.853428119000114,5.063746955000055],[119.853427311000019,5.063724547000048],[119.853423103000068,5.063718098000037],[119.853417149000052,5.063714616000027],[119.853387402000067,5.063731121000045],[119.853375846000077,5.063730346000057],[119.853359373000103,5.063710742000067],[119.853352707000099,5.063694879000023],[119.853354617000036,5.063678049000032],[119.853366336000036,5.06366496000004],[119.853390128000115,5.063644972000019],[119.853390387000118,5.063641135000069],[119.853384691000088,5.063633816000048],[119.853375143000122,5.06362623900003],[119.853349218000062,5.063609084000064],[119.853317693,5.06359463700005],[119.853301056000078,5.063588897000045],[119.853289502000052,5.063588122000055],[119.853275324000052,5.063591796000026],[119.853262117000114,5.063604015000065],[119.853245510000093,5.063632192000056],[119.853236509000112,5.063650859000061],[119.853226539000062,5.063660982000045],[119.853214370000046,5.063657855000032],[119.853200615000105,5.063643828000066],[119.853186927000024,5.06360591200007],[119.853177898000013,5.063590660000044],[119.853168609000022,5.063579245000028],[119.853150128000038,5.063566444000059],[119.853143299000067,5.063564446000044],[119.853134721000075,5.063565412000059],[119.853124136000019,5.063573180000049],[119.85311714400008,5.063585046000069],[119.853114618000063,5.063599521000071],[119.853121899000044,5.063617739000049],[119.853128825000113,5.06362976400004],[119.853134002000061,5.063644757000019],[119.853131736000037,5.063655397000048],[119.853124388000083,5.06366107100007],[119.85309671500012,5.063646882000056],[119.853078138000129,5.063624054000057],[119.853061759000084,5.063614476000055],[119.853052308000088,5.063616926000065],[119.853045316000021,5.063628790000053],[119.853049619000103,5.063645266000037],[119.853062500000092,5.063660776000063],[119.853070040000034,5.063675155000056],[119.853069262000076,5.063686666000022],[119.853060167000081,5.063695306000057],[119.853048353000091,5.063698368000074],[119.853033561000089,5.063699688000043],[119.853020517000118,5.063698044000033],[119.852997050000113,5.063690303000046],[119.852984525000011,5.06368098400003],[119.852973748000082,5.063668700000051],[119.852967081000074,5.063652836000073],[119.85296766700003,5.063621271000045],[119.852970971000104,5.063595285000076],[119.852968511000086,5.063585870000053],[119.852962815000069,5.063578552000024],[119.852951519000058,5.063573940000025],[119.852934624000127,5.06357203600004],[119.852920965000081,5.063568038000027],[119.852900736000038,5.06355820300007],[119.852890573000082,5.063548270000068],[119.852882159000046,5.063535373000035],[119.852883551000104,5.063526217000059],[119.852899899000022,5.063501876000032],[119.852903040000115,5.063489753000055],[119.852896114000032,5.063477728000066],[119.852895662000037,5.063461509000035],[119.852907122000047,5.063452257000051],[119.852918935000034,5.063449195000033],[119.852925669000129,5.063441167000063],[119.852928551000105,5.063432882000028],[119.852925477000085,5.063421113000058],[119.852898841000069,5.06339157800005],[119.852890782000031,5.063384871000038],[119.852886834000074,5.063374586000065],[119.852887612,5.063363077000077],[119.852893115000043,5.063350341000046],[119.852906581000084,5.063334286000043],[119.852907974000104,5.06332512900002],[119.85290638900004,5.063314232000039],[119.852897456000051,5.063309008000033],[119.852883797000104,5.063305009000032],[119.852835050000067,5.063316387000042],[119.852817895000044,5.063318319000076],[119.852806598000029,5.063313707000021],[119.852791615000115,5.063294975000076],[119.852785043000054,5.063289137000027],[119.852774363000094,5.063286880000019],[119.852751608000062,5.063291520000063],[119.852742253000102,5.063303997000048],[119.85273885200003,5.063319956000044],[119.852727184000074,5.063341812000033],[119.852730258000065,5.063353580000069],[119.852730355000062,5.063363607000043],[119.852722844000027,5.063383145000045],[119.852721192000104,5.06339613800003],[119.85272934700005,5.063412872000072],[119.852743717000052,5.063429252000047],[119.852756339000067,5.063448599000025],[119.852754946000118,5.063457755000059],[119.852745235000057,5.063464040000042],[119.85272448800005,5.063461878000053],[119.852701281,5.063450302000035],[119.852682281000071,5.063445174000037],[119.85264288900008,5.063444074000074],[119.852627743000099,5.063439204000078],[119.852617580000015,5.063429273000053],[119.852618002000114,5.063411573000052],[119.852627876000057,5.063391422000052],[119.852658305000077,5.063353380000025],[119.852668793000035,5.063335584000073],[119.852673068000072,5.063318142000073],[119.852674364000123,5.063298959000065],[119.852669186000085,5.063283966000029],[119.852657180000051,5.063266973000053],[119.852635721000084,5.063252431000024],[119.852608048000093,5.063238242000068],[119.85255156900007,5.063215185000047],[119.852528362000044,5.063203608000038],[119.852506385000069,5.063196739000034],[119.852484149000034,5.063193706000049],[119.85245395000004,5.063193994000073],[119.852427343000059,5.063198377000047],[119.85238384100002,5.063200855000048],[119.852361086000087,5.063205497000069],[119.852342537000013,5.063216585000021],[119.852329946000054,5.063231157000075],[119.852318583000056,5.063250437000022],[119.852314309,5.063267879000023],[119.852314146000026,5.063281743000061],[119.852311880000116,5.063292382000043],[119.852301910000037,5.063302505000024],[119.852273392000043,5.06332371700006],[119.852256170000032,5.063349541000035],[119.852250406000067,5.063366113000029],[119.852246748000084,5.063385910000022],[119.852250436000077,5.063400032000061],[119.852262962000054,5.06340934900004],[119.852272865000046,5.063423117000069],[119.852272701000061,5.06343698100005],[119.852263087000097,5.063453295000042],[119.852249266000058,5.063463159000037],[119.85223123600008,5.063466575000063],[119.852200941000106,5.063456836000057],[119.852173787000083,5.063434974000073],[119.852146277000088,5.063406921000023],[119.85212245400011,5.063392991000057],[119.852109670000118,5.06338750900005],[119.85209898800008,5.063385251000057],[119.852089278000108,5.063391537000029],[119.852085264000038,5.063405143000068],[119.852089922000118,5.063427809000076],[119.85208652300004,5.063443768000072],[119.852079789000072,5.063451797000026],[119.852065353000071,5.063459307000073],[119.852053538000064,5.063462369000034],[119.852038746000062,5.063463689000059],[119.852023338000095,5.06346265600007],[119.852008547000096,5.063463977000025],[119.851996732000089,5.063467039000045],[119.851980807000018,5.063473679000025],[119.851968473000056,5.063484415000062],[119.851961481000117,5.063496279000048],[119.851951896000074,5.063546510000037],[119.851933895000101,5.063583844000051],[119.851913081000035,5.063605573000075],[119.851901103000031,5.063622500000065],[119.851900941000054,5.063636364000048],[119.85191356200005,5.063655709000046],[119.851914533000013,5.06366425300007],[119.851908770000037,5.063680825000062],[119.851899155000055,5.063697138000066],[119.851891384000069,5.063720513000021],[119.851869427000111,5.063839289000042],[119.851858421000088,5.063864759000069],[119.851852302000125,5.06387514000005],[119.851844695000068,5.063884651000022],[119.851837347,5.063890325000045],[119.851830257000074,5.063892162000059],[119.851821584000035,5.063883102000034],[119.851818154000057,5.063865143000044],[119.851821102000031,5.063832966000064],[119.851817674000031,5.063815008000061],[119.85180705900008,5.063788858000065],[119.851802757000087,5.063772382000023],[119.851804668000128,5.063755552000032],[119.851816875000068,5.063700871000038],[119.851831898000114,5.063661796000076],[119.851854786000104,5.063609373000077],[119.851856439000017,5.063596381000025],[119.851849513000047,5.063584353000066],[119.851847313000022,5.063571102000025],[119.851851069000091,5.063561333000052],[119.851873631000117,5.063536639000062],[119.851881498000012,5.063523290000035],[119.851885254000081,5.06351352200005],[119.851886031000049,5.063502012000072],[119.851885935000055,5.06349198500004],[119.85188260200006,5.063484053000024],[119.851872958000058,5.063466448000042],[119.851849622000046,5.063431353000055],[119.851850722000094,5.063425803000029],[119.851865717000024,5.063408572000072],[119.851871839000069,5.063406894000026],[119.851898526,5.063389081000025],[119.851924630000099,5.063359621000075],[119.851924045000047,5.06334797300002],[119.851917339000011,5.063338004000058],[119.851902826000014,5.063323615000058],[119.851888898000084,5.063320875000045],[119.851876104000112,5.063327008000044],[119.851864995000042,5.063339237000036],[119.851858324000091,5.063343689000022],[119.851850551000098,5.063353692000021],[119.851833871000068,5.063364826000053],[119.851815506000094,5.063369861000069],[119.851801028000068,5.06336989500005],[119.851784864000024,5.063363832000051],[119.851772586000038,5.063352766000036],[119.851763645,5.063339475000021],[119.851746896000023,5.063321764000023],[119.851727397000104,5.063317927000069],[119.851698438000085,5.063317995000033],[119.851649466000012,5.063331423000021],[119.851633301000106,5.063325359000032],[119.851624911000059,5.06330929400002],[119.851624325000103,5.063297646000023],[119.851652114000103,5.063274282000066],[119.851657617000114,5.063246534000029],[119.851652561000037,5.063228241000048],[119.851644171000089,5.063212174000058],[119.85163020800006,5.063195011000063],[119.85162185,5.063193367000053],[119.851575114000084,5.063210118000029],[119.851563971,5.063207926000075],[119.851553379000038,5.063202958000033],[119.851528824000084,5.063180828000043],[119.851515996000103,5.063172538000059],[119.851493675000043,5.063153730000067],[119.851484184000014,5.063143213000047],[119.851464066000062,5.063113307000039],[119.851452304000077,5.063085045000037],[119.851434456000121,5.063072883000076],[119.85142331200008,5.063070691000064],[119.851379327,5.063073568000048],[119.851365949000069,5.063068052000062],[119.85135202000005,5.063065311000059],[119.851337541000035,5.063065346000029],[119.851313020000021,5.063057637000042],[119.851298541,5.063057671000024],[119.851294690000046,5.06307709500004],[119.851295275000098,5.063088742000048],[119.851283168,5.063149788000032],[119.851274845000049,5.063162566000074],[119.851261502000042,5.063171473000068],[119.851228658000096,5.063176542000064],[119.85120527200003,5.063177707000023],[119.851189693000038,5.063183290000039],[119.851175798000085,5.063194972000075],[119.851144157000036,5.063237758000071],[119.851126927000109,5.063251666000041],[119.851104643000113,5.06324728100003],[119.85109460000001,5.063239539000051],[119.851089511000055,5.063206824000075],[119.85109002600008,5.063189627000042],[119.851097731000095,5.063150779000068],[119.851103269000077,5.063137454000071],[119.851106020000088,5.063123580000023],[119.851122670000109,5.063069797000026],[119.851127007000073,5.063062005000063],[119.851132885000069,5.063057807000065],[119.851152465000041,5.063053732000071],[119.851161219000133,5.063054258000022],[119.851201309000089,5.063042312000049],[119.85121193000009,5.063035249000052],[119.851217200000079,5.063023661000045],[119.851183315000071,5.06302022400007],[119.851161590000061,5.06301331700007],[119.851144810000051,5.06300600700007],[119.85111960100005,5.062986987000044],[119.851110642000094,5.06298399800005],[119.851098279000098,5.062985005000031],[119.851070149000066,5.062991018000048],[119.851062732000059,5.062991622000026],[119.851056247000102,5.062988433000044],[119.851052964000033,5.062978782000073],[119.851051750000025,5.062964004000036],[119.851058404000014,5.062923791000059],[119.851063877000129,5.062914667000029],[119.851072025,5.062907804000075],[119.851080780000061,5.062908330000027],[119.851101775000089,5.062921495000068],[119.851111463000052,5.062918226000023],[119.851115599000082,5.062907971000072],[119.851112924000063,5.062905710000052],[119.851102752000102,5.062887943000021],[119.851097526000089,5.062869774000035],[119.851097447000029,5.062853664000044],[119.851091085,5.062836826000023],[119.851068270000027,5.062801495000029],[119.851046060000058,5.062773552000067],[119.8510288760001,5.062761316000035],[119.851014648000046,5.062769914000055],[119.851009377000068,5.062781501000075],[119.851005241000053,5.062791756000023],[119.851009333000107,5.062811258000067],[119.851006332000125,5.062820180000074],[119.850999723000086,5.062830638000036],[119.850970131000039,5.062849165000046],[119.850949295000078,5.062868220000042],[119.850942079000106,5.062871287000063],[119.850929312000062,5.062867369000061],[119.850923759000025,5.062860383000042],[119.850920275000021,5.062848271000064],[119.850916712000071,5.062820047000058],[119.850918701000069,5.06279881100005],[119.850913475000084,5.062780642000064],[119.850905652000066,5.062776319000023],[119.850898032000032,5.06277446100006],[119.850878858000101,5.062783462000026],[119.850861629000079,5.062800983000046],[119.850842579000073,5.062796337000066],[119.85083435200012,5.062787091000075],[119.850824832000058,5.062746956000068],[119.850820415000058,5.062738638000042],[119.850814863000096,5.062731652000024],[119.850807040000063,5.062727331000076],[119.850793340000109,5.062727208000068],[119.850781382000051,5.062733141000022],[119.850752195000027,5.062756596000042],[119.850718748000062,5.062803952000025],[119.850670668000021,5.062854980000055],[119.850656440000066,5.062863578000075],[119.850648819000071,5.062861720000058],[119.850640794000014,5.062854936000065],[119.850637715000062,5.062847748000024],[119.850633746000071,5.062814600000023],[119.850635533000073,5.062790899000047],[119.850641333000127,5.062770592000049],[119.850640119000104,5.06275581400007],[119.850633027000072,5.062745234000033],[119.850620989000049,5.062735058000044],[119.85061410000003,5.062726942000039],[119.850607008000125,5.062716362000059],[119.850603726000045,5.062706712000023],[119.850600972000066,5.06268834100007],[119.85060470400002,5.062673160000029],[119.850615121000047,5.062663633000056],[119.850633161000019,5.062655964000043],[119.850644917000068,5.062647568000047],[119.850652862000075,5.062638242000047],[119.850649783000122,5.062631055000054],[119.850633003000112,5.062623745000051],[119.850624450000069,5.062625681000043],[119.850608884000053,5.062633149000019],[119.850584035000111,5.062648811000031],[119.850572807000049,5.062648487000048],[119.850560971000064,5.062640774000045],[119.85056316400005,5.062621999000043],[119.850568839000047,5.062615338000056],[119.850584203000039,5.06260540900007],[119.850588339000069,5.062595154000063],[119.850568356000053,5.062594302000037],[119.850537021000051,5.062606774000073],[119.850527536000072,5.06261250600005],[119.850516915000071,5.062619570000037],[119.85051123900007,5.06262623200007],[119.850500292000106,5.062644481000063],[119.850493155000095,5.062663657000029],[119.850480872000048,5.062680775000046],[119.85047560100007,5.062692362000064],[119.850466722000064,5.06270548300006],[119.850443649000113,5.06277306800007],[119.85044012100002,5.062790712000037],[119.850430388000063,5.062823738000019],[119.850426330000104,5.062850103000073],[119.850425477000044,5.062870008000062],[119.850432242000011,5.062891772000056],[119.850442010000066,5.062904612000066],[119.850447360000103,5.062909134000051],[119.850456194000117,5.062925770000049],[119.850458869000036,5.062928032000059],[119.850465231000058,5.062944869000034],[119.850467983000058,5.062963240000044],[119.850467455000071,5.062971961000073],[119.850461859,5.06299473300004],[119.850435020000077,5.063031632000047],[119.85043201900011,5.063040555000043],[119.850429222000116,5.063051941000025],[119.850429098000063,5.063065588000028],[119.850431852000042,5.063083959000037],[119.85043059300007,5.063098939000041],[119.85042398500002,5.063109394000034],[119.850411094000037,5.063119123000035],[119.850390504000075,5.063110884000026],[119.850379680000074,5.063115485000026],[119.850350774000049,5.063157513000021],[119.850336545000104,5.063166112000032],[119.850330870000107,5.063172772000028],[119.850326935000126,5.063185490000023],[119.850330218000053,5.063195140000062],[119.850331432000075,5.063209918000042],[119.85032822900007,5.063216378000051],[119.850320283000102,5.063225703000057],[119.85031059500011,5.063228973000037],[119.850294421000072,5.063229052000054],[119.850281249000091,5.063220207000029],[119.850272618000076,5.063206034000075],[119.85026759400013,5.063190327000028],[119.850268042000025,5.063165496000066],[119.850273516000016,5.063156372000037],[119.850287542000046,5.063145311000028],[119.850294353000081,5.06313731700004],[119.85029581400012,5.063124801000072],[119.850293139000101,5.063122540000051],[119.850284305000059,5.063105904000053],[119.85027741600004,5.063097787000059],[119.850268582000027,5.063081152000052],[119.850271582000119,5.063072230000046],[119.850279528000101,5.063062904000049],[119.850319135000063,5.063029921000066],[119.850333487000057,5.063007676000041],[119.850344759000095,5.062978244000021],[119.850355019000048,5.062936498000057],[119.850356402000116,5.06290787100005],[119.850359728000058,5.062887764000037],[119.850367596000069,5.06286233000003],[119.85036905700008,5.062849812000022],[119.850366909000059,5.062838830000032],[119.850364235000029,5.062836569000067],[119.850355480000076,5.062836042000072],[119.850342183000066,5.062840845000039],[119.850325685000044,5.062852108000072],[119.850316930000076,5.062851582000063],[119.850310445000119,5.062848391000045],[119.850299340000106,5.062834420000057],[119.850297395000084,5.062825901000054],[119.850297722000064,5.062814717000037],[119.850293428000114,5.062792752000064],[119.850285403000058,5.062785967000023],[119.850278918000072,5.06278277700005],[119.8502578,5.062783259000072],[119.850250180000103,5.062781401000053],[119.850236480000049,5.062781277000056],[119.850227522000068,5.06277828800006],[119.85022063200006,5.062770172000056],[119.850217148000084,5.062758060000021],[119.850219946000038,5.06274667300005],[119.85023977100002,5.062715304000053],[119.85024544800001,5.062708644000054],[119.850252785000052,5.062691928000048],[119.850255707000102,5.062666896000053],[119.850252629000011,5.062659709000058],[119.85024995300013,5.062657447000049],[119.850240995000021,5.062654459000044],[119.85022235100007,5.062654738000049],[119.850205447,5.062661075000052],[119.850196692000068,5.062660550000031],[119.850181249000102,5.062654370000074],[119.850175696000079,5.062647384000058],[119.850175944000057,5.062620090000053],[119.850147892000123,5.062597247000042],[119.850128156000096,5.062569102000054],[119.850123333000056,5.062555858000053],[119.850119242,5.062536356000066],[119.850118557000087,5.062512858000048],[119.850101698000117,5.062489438000057],[119.850099754000084,5.062480918000062],[119.850083950000098,5.062440057000061],[119.850084479000088,5.062431335000042],[119.850090357000113,5.062427137000043],[119.850103125000018,5.062431055000047],[119.850111149000114,5.06243783900004],[119.850124647000044,5.062435499000059],[119.850125783000053,5.06243416700005],[119.850125176,5.062426778000031],[119.850119948000028,5.062408608000054],[119.850112250000052,5.062390641000036],[119.8501096990001,5.062374732000023],[119.850102202000031,5.062359227000059],[119.850088423000102,5.062342995000052],[119.850076588000107,5.062335280000068],[119.85007277800004,5.062334351000061],[119.850059685,5.062341617000072],[119.850034588000099,5.06238457300003],[119.850018978000108,5.062421798000059],[119.85000856000012,5.062431325000034],[119.849991657000047,5.062437661000046],[119.849982294000029,5.062429746000021],[119.849979541000025,5.062411375000069],[119.849999568000044,5.062382469000056],[119.850004839,5.062370883000029],[119.850007963000053,5.062348312000039],[119.850006952000058,5.062335998000036],[119.850000062000049,5.062327881000044],[119.849993577000077,5.06232469200006],[119.849970268000106,5.062343947000044],[119.849940350000111,5.062373660000048],[119.84992972900011,5.062380723000047],[119.84991716400009,5.062379268000029],[119.849904396000056,5.062375350000025],[119.84989584400013,5.06237728700006],[119.849890573000053,5.06238887400002],[119.84989466400009,5.062408376000065],[119.849908443000118,5.062424609000062],[119.849927167000033,5.062440439000056],[119.849938272000031,5.062454411000034],[119.849945768000097,5.062469915000064],[119.84994791400004,5.062480898000046],[119.849943656000036,5.062504799000067],[119.849937047000026,5.062515256000039],[119.849929832000058,5.062518323000063],[119.849917795,5.062508147000075],[119.849911231000078,5.062488847000053],[119.849908476000095,5.062470475000054],[119.849901183000043,5.062457433000019],[119.849886876000028,5.062449921000051],[119.849881931000027,5.062450324000054],[119.849860284000101,5.062459527000044],[119.849855339000101,5.062459930000046],[119.84980374000007,5.062452979000057],[119.849791377000088,5.062453986000037],[119.849765719000075,5.062459798000021],[119.84973471100011,5.062461085000051],[119.849719673000081,5.06245983100007],[119.849679100000131,5.062450741000021],[119.849608373000038,5.062423034000061],[119.849580893000052,5.062406678000058],[119.849574206000071,5.062401025000043],[119.849569789000043,5.062392707000071],[119.849572790000025,5.062383784000075],[119.849587344000042,5.062364002000038],[119.849589940000087,5.062350154000058],[119.849587591000059,5.062336709000022],[119.849581836000098,5.062327260000074],[119.849571339,5.062320677000059],[119.849556099000111,5.062316961000022],[119.849509648000094,5.062312070000075],[119.849467535000045,5.062299385000074],[119.849439730000086,5.062294214000075],[119.849413869000045,5.062297561000038],[119.849406654000077,5.062300629000049],[119.849369970000126,5.062308578000057],[119.849346581000077,5.06231172400004],[119.849329475000104,5.062315598000055],[119.849318652000079,5.062320199000055],[119.849316056000021,5.062334048000025],[119.849326351000073,5.062338167000062],[119.849345199000041,5.062340351000047],[119.849343536000106,5.062350404000028],[119.849337860000105,5.062357065000072],[119.849327037000094,5.062361666000072],[119.849303323000072,5.062375996000071],[119.84929363500008,5.062379265000059],[119.849283542000094,5.062377609000066],[119.849275719000048,5.06237328700007],[119.849272438000085,5.062363638000022],[119.84927195300007,5.062342602000058],[119.849266604000036,5.062338079000028],[119.849262997000082,5.062339612000074],[119.84925424100004,5.062339086000064],[119.849245688000096,5.062341023000045],[119.849234864000096,5.062345625000034],[119.849225987000068,5.062358746000029],[119.849231573000125,5.062411598000039],[119.849232461000042,5.062437560000035],[119.84923715900004,5.062464450000049],[119.849236182000027,5.06249800300003],[119.849233382000079,5.062509388000023],[119.849219638000022,5.062539022000067],[119.849219110000035,5.062547743000039],[119.84921898600011,5.062561390000041],[119.849225955000051,5.062585616000035],[119.84923037100009,5.062593934000062],[119.849238678,5.062619291000033],[119.84923741800003,5.062634271000035],[119.849230809,5.06264472700002],[119.849224931000094,5.062648925000076],[119.849215244000121,5.062652194000066],[119.84920288100011,5.062653202000035],[119.849191249000114,5.062647952000018],[119.849180347,5.06263644300003],[119.849173985000107,5.062619606000054],[119.84917431000008,5.062608422000038],[119.849172165000041,5.062597439000058],[119.849173625000049,5.062584923000032],[119.849176221000107,5.062571075000051],[119.849194226,5.062517539000055],[119.849198687000026,5.062496101000022],[119.849199014000078,5.062484917000062],[119.849194113000067,5.062455562000025],[119.849183739000068,5.062435332000064],[119.849175715000115,5.06242854800007],[119.849154922000025,5.062417846000073],[119.849142155000095,5.062413929000057],[119.849134737000099,5.062414532000047],[119.849127520000039,5.062417600000059],[119.849115237000092,5.062434718000021],[119.849107898000057,5.062451432000045],[119.849094681000125,5.062472345000058],[119.849084263,5.062481872000035],[119.849052400000105,5.062503065000044],[119.849037643000074,5.062520385000028],[119.849031113000024,5.062546951000058],[119.84902677500007,5.062554743000022],[119.849018424000064,5.062559143000044],[119.848972175000085,5.062556714000038],[119.848955069000112,5.062560588000052],[119.848928354000023,5.062583841000047],[119.848769106000063,5.062459560000036],[119.848767645000066,5.062437679000027],[119.84876937300011,5.062429114000054],[119.848777643000062,5.062414727000031],[119.848834552000099,5.06233129900005],[119.84888365900008,5.062275896000075],[119.848915061000071,5.062247960000034],[119.84896562400003,5.062217072000067],[119.848982585000059,5.062197710000021],[119.849037600000102,5.062146630000029],[119.849132291000046,5.062075208000068],[119.849159735000057,5.062050793000025],[119.849166339000021,5.062034235000055],[119.849167359000035,5.062016235000044],[119.849161474000084,5.06200010300006],[119.849150946,5.061985968000045],[119.849118766000061,5.061974],[119.849101759000078,5.061974174000056],[119.849085693,5.06197778400002],[119.849057439000035,5.061996510000029],[119.84904030600002,5.061998933000041],[119.849032718000103,5.061992863000056],[119.849030159000108,5.061978047000025],[119.84903556800009,5.061962550000032],[119.849050143000113,5.061945313000024],[119.849081166000019,5.061917712000024],[119.849088707000092,5.061904593000064],[119.849090794000077,5.061887781000052],[119.849083243000109,5.061841083000046],[119.849078461000104,5.061785511000039],[119.849081612000077,5.061769888000071],[119.849087023000038,5.06175439100002],[119.84909430800009,5.061745772000052],[119.849104793000038,5.061740719000056],[119.849118474000079,5.061739231000047],[119.849130834000107,5.061741054000037],[119.84913748300005,5.061743685000068],[119.849146519000101,5.061744194000028],[119.849155682000074,5.061742452000034],[119.849172004000025,5.061734341000033],[119.849192844000072,5.061726483000029],[119.849205458000043,5.061723807000021],[119.849220205000051,5.061723507000068],[119.849249571000072,5.061725159000048],[119.849260738000112,5.061728044000062],[119.849270711000031,5.061731992000034],[119.849282689,5.061740565000036],[119.849324842000101,5.061756478000063],[119.849328295000078,5.061755544000051],[119.849334261000067,5.061750236000025],[119.849334771000031,5.061741237000036],[119.849327138000035,5.061715977000063],[119.849325517000011,5.061704600000041],[119.849326537000024,5.061686599000039],[119.849334207000084,5.061671231000048],[119.849352614000054,5.061646306000058],[119.849356449000069,5.061638622000032],[119.849356021000062,5.061626184000032],[119.849352013000058,5.061616928000035],[119.849336156000049,5.061596850000058],[119.84932737500003,5.061591842000042],[119.849290550000077,5.061581871000044],[119.849278571000013,5.06157329700005],[119.849275885000111,5.061560731000044],[119.849279464,5.061557546000074],[119.849284748000073,5.061544300000038],[119.849284320000024,5.061531861000048],[119.849259125000117,5.061496585000041],[119.849245782000025,5.061472134000041],[119.84924774000001,5.061457572000053],[119.84925634700005,5.061445641000035],[119.849270156000117,5.061441904000048],[119.849285713000086,5.061447292000026],[119.849313548000069,5.061475944000051],[119.849337804000029,5.061507782000036],[119.849360184000034,5.061532741000064],[119.849379748000032,5.061547385000039],[119.84939863000011,5.061554090000071],[119.849412439000048,5.06155035200004],[119.849435282000073,5.061547122000035],[119.849476197000058,5.06154490800003],[119.849511956,5.061553690000039],[119.849538297000095,5.061568715000021],[119.849561188000067,5.061584674000073],[119.849587657000029,5.061597449000032],[119.849599079000086,5.061595834000058],[119.84960981800009,5.061586280000029],[119.849613652000016,5.061578596000061],[119.849610838000117,5.061568280000074],[119.849586025000022,5.061526255000046],[119.849572171000091,5.06151080300003],[119.849537561000034,5.061481770000056],[119.849503249000023,5.061467425000046],[119.849491272000023,5.061458851000054],[119.849486452000079,5.061443908000058],[119.849491864000015,5.061428412000055],[119.849501281,5.061422171000061],[119.849515901000018,5.061424120000026],[119.849536659000037,5.061437702000036],[119.849545567000064,5.061440461000075],[119.849566533000043,5.061430354000038],[119.84957795600009,5.061428738000076],[119.849590999000043,5.061438501000054],[119.849609927000074,5.061464396000077],[119.849629237000059,5.061483539000051],[119.849638017000089,5.061488547000067],[119.849647052000037,5.061489055000038],[119.849656216000085,5.061487313000043],[119.849665506000065,5.061483321000026],[119.849691582000105,5.061443029000031],[119.8497000630001,5.061433347000047],[119.849711868000085,5.061424982000063],[119.849726997000062,5.061417933000031],[119.849749968000083,5.061412453000058],[119.849788497000063,5.061412363000046],[119.849808827000075,5.061413506000063],[119.849864995000061,5.061422656000047],[119.849884259000078,5.061422611000069],[119.849886645000083,5.061420488000067],[119.849888222000118,5.061412676000031],[119.849883402000046,5.061397733000033],[119.849882720000096,5.061389794000036],[119.849885871000097,5.061374171000066],[119.849892602000082,5.061355364000065],[119.849906365000038,5.061332436000042],[119.849912164000088,5.061325023000051],[119.849719500000106,5.061287969000034],[119.848133308000129,5.059489514000063],[119.845446405000089,5.058643692000032],[119.84377695,5.05923540200007],[119.843733146000091,5.060911793000057],[119.843885473000128,5.060918450000031],[119.843781606000107,5.062159478000069],[119.843891259000088,5.063484381000023],[119.842723961000047,5.082052241000041],[119.842271286000027,5.084795709000048],[119.848891731000109,5.087591068000051],[119.852261691000095,5.089099599000064],[119.852714595000066,5.090209870000023],[119.852898369000044,5.090132046000065]]]]}}
]
}
