{
"type": "FeatureCollection",
"name": "kamagong",
"crs": { "type": "name", "properties": { "name": "urn:ogc:def:crs:OGC:1.3:CRS84" } },
"features": [
{"type":"Feature","properties":{"adm1_psgc":1900000000,"adm2_psgc":1907000000,"adm3_psgc":1907002000,"adm4_psgc":1907002006,"adm4_en":"Kamagong","geo_level":"Bgy","len_crs":14704,"area_crs":9141354,"len_km":14,"area_km2":9.0},"geometry":{"type":"MultiPolygon","coordinates":[[[[119.90446359300006,5.138711378000038],[119.903748989000078,5.123327078000044],[119.903093362000064,5.123169673000063],[119.900189431000044,5.122472487000039],[119.881293905,5.117935983000052],[119.871519863000131,5.115917977000038],[119.871452651000013,5.115929487000074],[119.869887605000031,5.116197486000033],[119.858394044000079,5.118165736000036],[119.855848710000018,5.125433249000023],[119.858515682000089,5.129759884000065],[119.861580576000037,5.134600545000069],[119.866058688000066,5.139587570000058],[119.876772259000063,5.129649448000067],[119.904526016000105,5.140052286000071],[119.90446359300006,5.138711378000038]]]]}}
]
}
